{"type": "FeatureCollection", "features": [ {"type": "Feature", "properties": {"norad_id": 33492, "name": "GOSAT (IBUKI)", "group": "resource", "lat": 4.28125179200266, "lon": -83.01750679490038, "alt_km": 671.2364635998229, "timestamp": "2025-12-13T18:50:04.085065+00:00", "meta": {"OBJECT_NAME": "GOSAT (IBUKI)", "OBJECT_ID": "2009-002A", "EPOCH": "2025-12-13T06:34:57.648576", "MEAN_MOTION": 14.67557071, "ECCENTRICITY": 9.365e-05, "INCLINATION": 98.0769, "RA_OF_ASC_NODE": 95.8701, "ARG_OF_PERICENTER": 92.3539, "MEAN_ANOMALY": 267.7773, "EPHEMERIS_TYPE": 0, "CLASSIFICATION_TYPE": "U", "NORAD_CAT_ID": 33492, "ELEMENT_SET_NO": 999, "REV_AT_EPOCH": 90419, "BSTAR": 0.000261927, "MEAN_MOTION_DOT": 1.438e-05, "MEAN_MOTION_DDOT": 0}, "tle": {"line1": "1 33492U 09002A   25347.27427834  .00001438  00000+0  26193-3 0  9999", "line2": "2 33492  98.0769  95.8701 0000936  92.3539 267.7773 14.67557071904196"}}, "geometry": {"type": "Point", "coordinates": [-83.01750679490038, 4.28125179200266]}}, {"type": "Feature", "properties": {"norad_id": 35681, "name": "DEIMOS-1", "group": "resource", "lat": -76.55822911226272, "lon": -177.10530676646377, "alt_km": 654.4013775725807, "timestamp": "2025-12-13T18:50:04.085076+00:00", "meta": {"OBJECT_NAME": "DEIMOS-1", "OBJECT_ID": "2009-041A", "EPOCH": "2025-12-13T07:47:41.943264", "MEAN_MOTION": 14.74954265, "ECCENTRICITY": 0.00027458, "INCLINATION": 97.7151, "RA_OF_ASC_NODE": 147.9007, "ARG_OF_PERICENTER": 79.152, "MEAN_ANOMALY": 280.9999, "EPHEMERIS_TYPE": 0, "CLASSIFICATION_TYPE": "U", "NORAD_CAT_ID": 35681, "ELEMENT_SET_NO": 999, "REV_AT_EPOCH": 87948, "BSTAR": 0.00018147471, "MEAN_MOTION_DOT": 1.172e-05, "MEAN_MOTION_DDOT": 0}, "tle": {"line1": "1 35681U 09041A   25347.32479101  .00001172  00000+0  18147-3 0  9999", "line2": "2 35681  97.7151 147.9007 0002745  79.1520 280.9999 14.74954265879484"}}, "geometry": {"type": "Point", "coordinates": [-177.10530676646377, -76.55822911226272]}}, {"type": "Feature", "properties": {"norad_id": 35682, "name": "DUBAISAT-1", "group": "resource", "lat": -34.27709892228602, "lon": -67.03655997894089, "alt_km": 653.3820191818049, "timestamp": "2025-12-13T18:50:04.085087+00:00", "meta": {"OBJECT_NAME": "DUBAISAT-1", "OBJECT_ID": "2009-041B", "EPOCH": "2025-12-13T08:05:32.518752", "MEAN_MOTION": 14.74607844, "ECCENTRICITY": 0.00095229, "INCLINATION": 97.9784, "RA_OF_ASC_NODE": 118.0079, "ARG_OF_PERICENTER": 312.5561, "MEAN_ANOMALY": 47.4843, "EPHEMERIS_TYPE": 0, "CLASSIFICATION_TYPE": "U", "NORAD_CAT_ID": 35682, "ELEMENT_SET_NO": 999, "REV_AT_EPOCH": 87770, "BSTAR": 0.00034970241, "MEAN_MOTION_DOT": 2.282e-05, "MEAN_MOTION_DDOT": 0}, "tle": {"line1": "1 35682U 09041B   25347.33718193  .00002282  00000+0  34970-3 0  9993", "line2": "2 35682  97.9784 118.0079 0009522 312.5561  47.4843 14.74607844877701"}}, "geometry": {"type": "Point", "coordinates": [-67.03655997894089, -34.27709892228602]}}, {"type": "Feature", "properties": {"norad_id": 35931, "name": "OCEANSAT-2", "group": "resource", "lat": 67.76040521279667, "lon": -171.0127006590024, "alt_km": 884.143027525748, "timestamp": "2025-12-13T18:50:04.085098+00:00", "meta": {"OBJECT_NAME": "OCEANSAT-2", "OBJECT_ID": "2009-051A", "EPOCH": "2025-12-13T06:17:56.194944", "MEAN_MOTION": 13.99624549, "ECCENTRICITY": 0.00162037, "INCLINATION": 98.2222, "RA_OF_ASC_NODE": 347.8101, "ARG_OF_PERICENTER": 43.6882, "MEAN_ANOMALY": 316.5564, "EPHEMERIS_TYPE": 0, "CLASSIFICATION_TYPE": "U", "NORAD_CAT_ID": 35931, "ELEMENT_SET_NO": 999, "REV_AT_EPOCH": 85332, "BSTAR": -6.7280855e-05, "MEAN_MOTION_DOT": -1.36e-06, "MEAN_MOTION_DDOT": 0}, "tle": {"line1": "1 35931U 09051A   25347.26245596 -.00000136  00000+0 -67281-4 0  9995", "line2": "2 35931  98.2222 347.8101 0016203  43.6882 316.5564 13.99624549853328"}}, "geometry": {"type": "Point", "coordinates": [-171.0127006590024, 67.76040521279667]}}, {"type": "Feature", "properties": {"norad_id": 35946, "name": "WORLDVIEW-2 (WV-2)", "group": "resource", "lat": 14.6267773315617, "lon": 56.62338244722124, "alt_km": 764.6597412635338, "timestamp": "2025-12-13T18:50:04.085109+00:00", "meta": {"OBJECT_NAME": "WORLDVIEW-2 (WV-2)", "OBJECT_ID": "2009-055A", "EPOCH": "2025-12-13T07:04:26.520096", "MEAN_MOTION": 14.37724436, "ECCENTRICITY": 0.0005166, "INCLINATION": 98.4788, "RA_OF_ASC_NODE": 58.3712, "ARG_OF_PERICENTER": 69.2893, "MEAN_ANOMALY": 290.8847, "EPHEMERIS_TYPE": 0, "CLASSIFICATION_TYPE": "U", "NORAD_CAT_ID": 35946, "ELEMENT_SET_NO": 999, "REV_AT_EPOCH": 84893, "BSTAR": 0.00010732888, "MEAN_MOTION_DOT": 2.79e-06, "MEAN_MOTION_DDOT": 0}, "tle": {"line1": "1 35946U 09055A   25347.29475139  .00000279  00000+0  10733-3 0  9991", "line2": "2 35946  98.4788  58.3712 0005166  69.2893 290.8847 14.37724436848935"}}, "geometry": {"type": "Point", "coordinates": [56.62338244722124, 14.6267773315617]}}, {"type": "Feature", "properties": {"norad_id": 36036, "name": "SMOS", "group": "resource", "lat": 56.954888472200686, "lon": 159.62711799099102, "alt_km": 753.1502575716195, "timestamp": "2025-12-13T18:50:04.085120+00:00", "meta": {"OBJECT_NAME": "SMOS", "OBJECT_ID": "2009-059A", "EPOCH": "2025-12-13T06:53:27.117024", "MEAN_MOTION": 14.39741986, "ECCENTRICITY": 0.00011028, "INCLINATION": 98.4381, "RA_OF_ASC_NODE": 172.3275, "ARG_OF_PERICENTER": 84.4214, "MEAN_ANOMALY": 275.71, "EPHEMERIS_TYPE": 0, "CLASSIFICATION_TYPE": "U", "NORAD_CAT_ID": 36036, "ELEMENT_SET_NO": 999, "REV_AT_EPOCH": 84670, "BSTAR": 0.00020570841, "MEAN_MOTION_DOT": 6.01e-06, "MEAN_MOTION_DDOT": 0}, "tle": {"line1": "1 36036U 09059A   25347.28711941  .00000601  00000+0  20571-3 0  9999", "line2": "2 36036  98.4381 172.3275 0001102  84.4214 275.7100 14.39741986846706"}}, "geometry": {"type": "Point", "coordinates": [159.62711799099102, 56.954888472200686]}}, {"type": "Feature", "properties": {"norad_id": 36110, "name": "YAOGAN-7", "group": "resource", "lat": 25.522847877349413, "lon": -134.32693156054984, "alt_km": 640.7381995445421, "timestamp": "2025-12-13T18:50:04.085131+00:00", "meta": {"OBJECT_NAME": "YAOGAN-7", "OBJECT_ID": "2009-069A", "EPOCH": "2025-12-13T05:43:02.385984", "MEAN_MOTION": 14.77734076, "ECCENTRICITY": 0.00233648, "INCLINATION": 98.03, "RA_OF_ASC_NODE": 228.9935, "ARG_OF_PERICENTER": 279.5984, "MEAN_ANOMALY": 80.2586, "EPHEMERIS_TYPE": 0, "CLASSIFICATION_TYPE": "U", "NORAD_CAT_ID": 36110, "ELEMENT_SET_NO": 999, "REV_AT_EPOCH": 86216, "BSTAR": 0.00015871538, "MEAN_MOTION_DOT": 1.089e-05, "MEAN_MOTION_DDOT": 0}, "tle": {"line1": "1 36110U 09069A   25347.23822206  .00001089  00000+0  15872-3 0  9994", "line2": "2 36110  98.0300 228.9935 0023364 279.5984  80.2586 14.77734076862161"}}, "geometry": {"type": "Point", "coordinates": [-134.32693156054984, 25.522847877349413]}}, {"type": "Feature", "properties": {"norad_id": 36605, "name": "TANDEM-X", "group": "resource", "lat": 65.72268005701862, "lon": -23.705403469706166, "alt_km": 500.8664170720622, "timestamp": "2025-12-13T18:50:04.085142+00:00", "meta": {"OBJECT_NAME": "TANDEM-X", "OBJECT_ID": "2010-030A", "EPOCH": "2025-12-12T12:30:19.785312", "MEAN_MOTION": 15.19147619, "ECCENTRICITY": 0.00017615, "INCLINATION": 97.4455, "RA_OF_ASC_NODE": 351.9037, "ARG_OF_PERICENTER": 90.78, "MEAN_ANOMALY": 269.3636, "EPHEMERIS_TYPE": 0, "CLASSIFICATION_TYPE": "U", "NORAD_CAT_ID": 36605, "ELEMENT_SET_NO": 999, "REV_AT_EPOCH": 85830, "BSTAR": 0.00012546262, "MEAN_MOTION_DOT": 2.568e-05, "MEAN_MOTION_DDOT": 0}, "tle": {"line1": "1 36605U 10030A   25346.52106233  .00002568  00000+0  12546-3 0  9997", "line2": "2 36605  97.4455 351.9037 0001761  90.7800 269.3636 15.19147619858306"}}, "geometry": {"type": "Point", "coordinates": [-23.705403469706166, 65.72268005701862]}}, {"type": "Feature", "properties": {"norad_id": 36795, "name": "CARTOSAT-2B", "group": "resource", "lat": -42.9544918749155, "lon": 44.099203429856956, "alt_km": 644.1323334672661, "timestamp": "2025-12-13T18:50:04.085152+00:00", "meta": {"OBJECT_NAME": "CARTOSAT-2B", "OBJECT_ID": "2010-035A", "EPOCH": "2025-12-13T06:02:19.000320", "MEAN_MOTION": 14.78727671, "ECCENTRICITY": 0.00130808, "INCLINATION": 97.7853, "RA_OF_ASC_NODE": 36.2653, "ARG_OF_PERICENTER": 75.1906, "MEAN_ANOMALY": 285.0754, "EPHEMERIS_TYPE": 0, "CLASSIFICATION_TYPE": "U", "NORAD_CAT_ID": 36795, "ELEMENT_SET_NO": 999, "REV_AT_EPOCH": 83237, "BSTAR": 0.00027343256, "MEAN_MOTION_DOT": 1.96e-05, "MEAN_MOTION_DDOT": 0}, "tle": {"line1": "1 36795U 10035A   25347.25160880  .00001960  00000+0  27343-3 0  9997", "line2": "2 36795  97.7853  36.2653 0013080  75.1906 285.0754 14.78727671832370"}}, "geometry": {"type": "Point", "coordinates": [44.099203429856956, -42.9544918749155]}}, {"type": "Feature", "properties": {"norad_id": 36834, "name": "YAOGAN-10", "group": "resource", "lat": 58.100814451344654, "lon": -5.317888530175396, "alt_km": 608.2256151922738, "timestamp": "2025-12-13T18:50:04.085163+00:00", "meta": {"OBJECT_NAME": "YAOGAN-10", "OBJECT_ID": "2010-038A", "EPOCH": "2025-12-13T07:49:49.618272", "MEAN_MOTION": 14.84612404, "ECCENTRICITY": 0.00015024, "INCLINATION": 97.9151, "RA_OF_ASC_NODE": 7.1428, "ARG_OF_PERICENTER": 81.8065, "MEAN_ANOMALY": 48.246, "EPHEMERIS_TYPE": 0, "CLASSIFICATION_TYPE": "U", "NORAD_CAT_ID": 36834, "ELEMENT_SET_NO": 999, "REV_AT_EPOCH": 82962, "BSTAR": 0.00030125407, "MEAN_MOTION_DOT": 2.492e-05, "MEAN_MOTION_DDOT": 0}, "tle": {"line1": "1 36834U 10038A   25347.32626873  .00002492  00000+0  30125-3 0  9994", "line2": "2 36834  97.9151   7.1428 0001502  81.8065  48.2460 14.84612404829621"}}, "geometry": {"type": "Point", "coordinates": [-5.317888530175396, 58.100814451344654]}}]}